#cP2010  5  9  0  0  0.00000000      96 U     WGS84 BRD NCKU
## 1583      0.00000000   900.00000000 55325 0.0000000000000
+   33   G01G02G03G04G05G06G07G08G09G10G11G12G13G14G15G16G17
+        G18G19G20G21G22G23G24G25G26G27G28G29G30G31G32G75  0
+          0  0  0  0  0  0  0  0  0  0  0  0  0  0  0  0  0
+          0  0  0  0  0  0  0  0  0  0  0  0  0  0  0  0  0
+          0  0  0  0  0  0  0  0  0  0  0  0  0  0  0  0  0
++         0  0  0  0  0  0  0  0  0  0  0  0  0  0  0  0  0
++         0  0  0  0  0  0  0  0  0  0  0  0  0  0  0  0  0
++         0  0  0  0  0  0  0  0  0  0  0  0  0  0  0  0  0
++         0  0  0  0  0  0  0  0  0  0  0  0  0  0  0  0  0
++         0  0  0  0  0  0  0  0  0  0  0  0  0  0  0  0  0
%c G  cc GPS ccc cccc cccc cccc cccc ccccc ccccc ccccc ccccc
%c cc cc ccc ccc cccc cccc cccc cccc ccccc ccccc ccccc ccccc
%f  1.2500000  1.025000000  0.00000000000  0.000000000000000
%f  0.0000000  0.000000000  0.00000000000  0.000000000000000
%i    0    0    0    0      0      0      0      0         0
%i    0    0    0    0      0      0      0      0         0
/*                                                          
/*                                                          
/*                                                          
/*                                                          
*  2010  5  9 11  0  0.00000000
PG01 -18709.458134  -3307.489816  18522.395407   -117.515512
PG02  15809.587960 -13928.214483  15862.463164    254.043958
PG03  -9582.764726  24282.662110   3394.499067    552.616861
PG04      0.000000      0.000000      0.000000 999999.999999
PG05   4444.794608 -17085.298926  19799.791639     -2.652012
PG06 -13613.619480  21561.489025   7344.326302    644.900605
PG07  21207.877865   7281.140903  14353.042777     -0.297854
PG08  26667.479661    557.860958   3067.592059      5.323793
PG09  -1763.279054 -14930.183658 -22439.498125      5.524875
PG10  12491.860088  -8801.775395  21536.859615    -42.156387
PG11      0.000000      0.000000      0.000000 999999.999999
PG12 -10929.864424 -23139.259881  -7351.947100   -117.393025
PG13   8733.879914  13286.177272  21129.179324    304.625073
PG14 -17196.672320   7270.025916 -18704.215484     43.519902
PG15      0.000000      0.000000      0.000000 999999.999999
PG16  -9640.623743  11958.997352  21682.649014    -69.693198
PG17  17334.451317  -6201.693308 -18961.922805    149.625623
PG18 -19417.160799 -16149.480703  -8551.799182     67.102470
PG19  -6671.325312  24412.724458  -7489.483971    -33.667877
PG20  13165.595937  22507.643699  -5328.476239     56.422132
PG21 -24039.216489  -5496.358748  10983.947577    -58.932330
PG22 -19328.736171  -4950.632347 -17412.306280    172.522314
PG23   3614.159788  20320.836331  16507.821475    371.479175
PG24      0.000000      0.000000      0.000000 999999.999999
PG25   3614.159788  20320.836331  16507.821475    371.479175
PG26  -1894.632990 -20738.938535 -16744.172800    -49.536895
PG27   2007.798712 -14869.861828 -21219.499612    150.381293
PG28  19232.864630   8117.888438 -16112.467912    -16.642254
PG29  -9487.774100 -13942.840127  20624.378773    118.608630
PG30 -17970.706484 -19451.273797   1999.225690    241.021331
PG31 -24770.202860   7508.407089   6569.055555    -37.579994
PG32   5145.406787  23351.273755 -11572.523652     33.387952
PG75      0.000000      0.000000      0.000000 999999.999999
*  2010  5  9 11 15  0.00000000
PG01 -19894.513813  -4970.586927  16864.168922   -117.519196
PG02  17552.109333 -13975.823796  13821.916460    254.047130
PG03  -9801.103208  23616.290431   6128.176232    552.621363
PG04      0.000000      0.000000      0.000000 999999.999999
PG05   5992.222787 -15341.439519  20801.217027     -2.652728
PG06 -13605.833762  20540.536960   9914.040044    644.890885
PG07  19498.868011   7699.576388  16395.522302     -0.298161
PG08  26174.304857    721.293409   5895.596979      5.323997
PG09    628.892482 -15363.541002 -22196.118516      5.526921
PG10  14014.061836  -6825.626104  21348.730200    -42.157104
PG11      0.000000      0.000000      0.000000 999999.999999
PG12 -10155.648135 -22486.018982  -9983.688569   -117.389137
PG13   7675.038514  15417.831839  20070.877000    304.624766
PG14 -16383.794595   5176.873681 -20081.263495     43.523892
PG15      0.000000      0.000000      0.000000 999999.999999
PG16 -11179.013374  10006.013673  21956.591947    -69.696575
PG17  16588.200775  -4058.293956 -20182.670154    149.627669
PG18 -19719.839809 -16995.561341  -5929.380800     67.104619
PG19  -7226.939211  24934.816634  -4739.437733    -33.670230
PG20  12449.985014  22137.467907  -7994.995210     56.421620
PG21 -22759.174500  -5911.088127  13266.439572    -58.934683
PG22 -20335.619652  -6602.095201 -15652.874760    172.521598
PG23   2789.134671  21917.236448  14478.177675    371.477947
PG24      0.000000      0.000000      0.000000 999999.999999
PG25   2789.134671  21917.236448  14478.177675    371.477947
PG26  -1055.432360 -22245.912398 -14649.637695    -49.541397
PG27   4495.657763 -15335.129658 -20504.294747    150.384362
PG28  20184.150818   9644.516915 -14061.414019    -16.641436
PG29  -8518.809729 -16005.547727  19518.417780    118.611086
PG30 -17843.373429 -19708.981099   -842.741460    241.024401
PG31 -25356.434977   7409.913120   3772.125531    -37.577947
PG32   4143.807944  22225.258394 -13863.812903     33.380279
PG75      0.000000      0.000000      0.000000 999999.999999
*  2010  5  9 11 30  0.00000000
PG01 -21026.356985  -6417.063931  14915.382376   -117.522879
PG02  19052.480593 -14050.156479  11537.855415    254.050302
PG03  -9994.217711  22659.122561   8753.118417    552.625865
PG04      0.000000      0.000000      0.000000 999999.999999
PG05   7690.171451 -13611.736311  21443.586053     -2.653444
PG06 -13573.912996  19251.285425  12313.097906    644.881165
PG07  17603.897393   8256.132923  18157.550324     -0.298468
PG08  25383.053431    960.190452   8625.250377      5.324202
PG09   2948.343182 -15920.731024 -21589.210340      5.528967
PG10  15603.902061  -4964.071028  20787.981095    -42.157820
PG11      0.000000      0.000000      0.000000 999999.999999
PG12  -9154.090462 -21661.194233 -12444.679169   -117.385249
PG13   6790.558421  17474.507430  18662.776732    304.624459
PG14 -15641.263954   2913.242892 -21107.608489     43.527883
PG15      0.000000      0.000000      0.000000 999999.999999
PG16 -12825.052083   8133.607845  21854.128879    -69.699951
PG17  15914.949419  -1768.161865 -21051.316151    149.629715
PG18 -19867.939833 -17596.835908  -3206.468344     67.106767
PG19  -7635.633562  25189.520187  -1906.235890    -33.672583
PG20  11514.835382  21592.398968 -10524.948687     56.421109
PG21 -21265.430850  -6436.565417  15331.527163    -58.937037
PG22 -21280.124846  -8039.164922 -13622.162100    172.520881
PG23   2124.507115  23321.939952  12195.267804    371.476719
PG24      0.000000      0.000000      0.000000 999999.999999
PG25   2124.507115  23321.939952  12195.267804    371.476719
PG26   -388.789296 -23568.376981 -12305.769850    -49.545899
PG27   6852.379959 -15903.055352 -19412.878999    150.387432
PG28  21053.472322  10924.235028 -11764.531951    -16.640617
PG29  -7706.444033 -17980.912639  18079.611651    118.613541
PG30 -17505.886454 -19743.905271  -3670.306978    241.027470
PG31 -25636.259679   7274.315835    911.191712    -37.575901
PG32   2930.906381  20955.740409 -15915.409008     33.372605
PG75      0.000000      0.000000      0.000000 999999.999999
*  2010  5  9 11 45  0.00000000
PG01 -22061.929151  -7638.212439  12710.065306   -117.526562
PG02  20288.785004 -14116.448571   9050.110287    254.053474
PG03 -10196.501834  21421.767293  11222.296878    552.630367
PG04      0.000000      0.000000      0.000000 999999.999999
PG05   9512.152525 -11936.834382  21716.043253     -2.654161
PG06 -13553.023341  17710.370507  14500.723285    644.871444
PG07  15566.028774   8965.129386  19608.642318     -0.298775
PG08  24315.087392   1309.339569  11210.793826      5.324407
PG09   5151.936808 -16582.161732 -20628.096596      5.531014
PG10  17224.197351  -3248.357656  19865.561267    -42.158536
PG11      0.000000      0.000000      0.000000 999999.999999
PG12  -7917.962446 -20705.296136 -14692.587184   -117.381361
PG13   6079.021398  19406.532857  16929.623483    304.624152
PG14 -14998.693472    520.188489 -21765.480027     43.531873
PG15      0.000000      0.000000      0.000000 999999.999999
PG16 -14545.079198   6378.113104  21377.849307    -69.703328
PG17  15340.479641    627.225518 -21553.178807    149.631762
PG18 -19829.705028 -17969.204607   -429.401908     67.108916
PG19  -7928.494932  25156.193707    960.413347    -33.674937
PG20  10351.810570  20909.304249 -12875.352892     56.420597
PG21 -19591.765842  -7092.252804  17145.262443    -58.939390
PG22 -22121.932228  -9254.198373 -11355.801002    172.520165
PG23   1601.248576  24496.003145   9698.738559    371.475491
PG24      0.000000      0.000000      0.000000 999999.999999
PG25   1601.248576  24496.003145   9698.738559    371.475491
PG26    123.824111 -24664.978900  -9750.889093    -49.550401
PG27   9033.390357 -16546.066341 -17965.982591    150.390501
PG28  21798.976858  11954.829300  -9263.207368    -16.639799
PG29  -7046.527936 -19823.291635  16332.394319    118.615997
PG30 -16936.680489 -19586.215120  -6435.309951    241.030540
PG31 -25612.513022   7062.955085  -1965.224226    -37.573855
PG32   1506.164090  19585.272908 -17690.507634     33.364931
PG75      0.000000      0.000000      0.000000 999999.999999
EOF
